[{"OBJECT_NAME":"ICEYE-X6","OBJECT_ID":"2020-068M","EPOCH":"2026-03-09T22:38:15.311328","MEAN_MOTION":15.03906063,"ECCENTRICITY":0.00090855,"INCLINATION":98.0946,"RA_OF_ASC_NODE":57.9399,"ARG_OF_PERICENTER":68.4739,"MEAN_ANOMALY":291.7454,"EPHEMERIS_TYPE":0,"CLASSIFICATION_TYPE":"U","NORAD_CAT_ID":46497,"ELEMENT_SET_NO":999,"REV_AT_EPOCH":29831,"BSTAR":0.00025875904,"MEAN_MOTION_DOT":3.502e-5,"MEAN_MOTION_DDOT":0},{"OBJECT_NAME":"STARLINK-6276","OBJECT_ID":"2023-099AD","EPOCH":"2026-03-09T10:32:30.668640","MEAN_MOTION":15.02525983,"ECCENTRICITY":0.00014989,"INCLINATION":43.0015,"RA_OF_ASC_NODE":237.7576,"ARG_OF_PERICENTER":265.3402,"MEAN_ANOMALY":94.7269,"EPHEMERIS_TYPE":0,"CLASSIFICATION_TYPE":"U","NORAD_CAT_ID":57355,"ELEMENT_SET_NO":999,"REV_AT_EPOCH":14622,"BSTAR":0.00012402071,"MEAN_MOTION_DOT":1.472e-5,"MEAN_MOTION_DDOT":0}]
